NORAD_CAT_ID,OBJECT_NAME,OBJECT_TYPE,EPOCH,MEAN_MOTION,ECCENTRICITY,INCLINATION,RA_OF_ASC_NODE,ARG_OF_PERICENTER,MEAN_ANOMALY,BSTAR,MEAN_MOTION_DOT,MEAN_MOTION_DDOT,TLE_LINE0,TLE_LINE1,TLE_LINE2,SEMIMAJOR_AXIS,PERIOD,APOGEE,PERIGEE,DECAYED
51895.0,STARLINK-3594,PAYLOAD,2022-07-09 20:00:01,15.08852332,0.0001866,53.2166,249.4628,49.0398,9.9732,-0.0019168,-0.00030675,0.0,0 STARLINK-3594,1 51895U 22022AV  22190.83334491 -.00030675  00000-0 -19168-2 0  9995,2 51895  53.2166 249.4628 0001866  49.0398   9.9732 15.08852332  1303,6917.843000000003,95.437,540.999,538.4169999999998,0.0
51895.0,STARLINK-3594,PAYLOAD,2022-07-10 14:00:01,15.0880333,0.0002087,53.2168,246.0974,45.9973,129.0883,0.0030667,0.00048808,0.0,0 STARLINK-3594,1 51895U 22022AV  22191.58334491  .00048808  00000-0  30667-2 0  9990,2 51895  53.2168 246.0974 0002087  45.9973 129.0883 15.08803330  1307,6917.9919999999975,95.44,541.3009999999998,538.414,0.0
51895.0,STARLINK-3594,PAYLOAD,2022-07-10 22:00:00,15.08827242,0.000194,53.2169,244.5994,49.38399999999999,137.2803,0.00057608,8.889e-05,0.0,0 STARLINK-3594,1 51895U 22022AV  22191.91667824  .00008889  00000-0  57608-3 0  9996,2 51895  53.2169 244.5994 0001940  49.3840 137.2803 15.08827242  1302,6917.919,95.438,541.126,538.442,0.0
51895.0,STARLINK-3594,PAYLOAD,2022-07-11 06:00:00,15.08852972,0.0002011,53.217,243.1035,51.6583,146.5857,-0.0010635999999999,-0.00017182,0.0,0 STARLINK-3594,1 51895U 22022AV  22192.25001157 -.00017182  00000-0 -10636-2 0  9992,2 51895  53.2170 243.1035 0002011  51.6583 146.5857 15.08852972 21330,6917.840999999999,95.437,541.097,538.315,0.0
51895.0,STARLINK-3594,PAYLOAD,2022-07-11 14:00:01,15.08818755,0.0002167,53.2168,241.6085,46.1642,163.6866,0.0031982,0.00050951,0.0,0 STARLINK-3594,1 51895U 22022AV  22192.58334491  .00050951  00000-0  31982-2 0  9994,2 51895  53.2168 241.6085 0002167  46.1642 163.6866 15.08818755  1308,6917.945,95.439,541.309,538.311,0.0
51895.0,STARLINK-3594,PAYLOAD,2022-07-11 22:00:00,15.08837593,0.0001995,53.217,240.1104,49.7452,171.7028,0.0010163,0.00015922,0.0,0 STARLINK-3594,1 51895U 22022AV  22192.91667824  .00015922  00000-0  10163-2 0  9997,2 51895  53.2170 240.1104 0001995  49.7452 171.7028 15.08837593  1304,6917.888000000001,95.438,541.133,538.373,0.0
51895.0,STARLINK-3594,PAYLOAD,2022-07-12 06:00:00,15.08872739,0.000201,53.217,238.6146,50.4705,182.574,-0.0040054,-0.00063531,0.0,0 STARLINK-3594,1 51895U 22022AV  22193.25001157 -.00063531  00000-0 -40054-2 0  9999,2 51895  53.2170 238.6146 0002010  50.4705 182.5740 15.08872739 21484,6917.78,95.435,541.036,538.255,0.0
51895.0,STARLINK-3594,PAYLOAD,2022-07-12 14:00:01,15.08812177,0.0002123,53.2167,237.1196,44.4261,200.2351,0.0031756,0.00050577,0.0,0 STARLINK-3594,1 51895U 22022AV  22193.58334491  .00050577  00000-0  31756-2 0  9998,2 51895  53.2167 237.1196 0002123  44.4261 200.2351 15.08812177  1309,6917.965,95.439,541.299,538.362,0.0
51895.0,STARLINK-3594,PAYLOAD,2022-07-12 22:00:00,15.08826935,0.0001945,53.2168,235.6214,48.7449,207.5077,0.0018537,0.00029327,0.0,0 STARLINK-3594,1 51895U 22022AV  22193.91667824  .00029327  00000-0  18537-2 0  9995,2 51895  53.2168 235.6214 0001945  48.7449 207.5077 15.08826935  1302,6917.92,95.438,541.131,538.44,0.0
51895.0,STARLINK-3594,PAYLOAD,2022-07-13 14:00:01,15.088251199999998,0.0002062,53.2163,232.6304,43.3169,236.137,0.00070812,0.00010995,0.0,0 STARLINK-3594,1 51895U 22022AV  22194.58334491  .00010995  00000-0  70812-3 0  9996,2 51895  53.2163 232.6304 0002062  43.3169 236.1370 15.08825120 21687,6917.926,95.438,541.217,538.364,0.0
51895.0,STARLINK-3594,PAYLOAD,2022-07-13 22:00:00,15.08807798,0.0001851,53.2163,231.1323,47.5982,243.4442,0.0021096,0.00033416,0.0,0 STARLINK-3594,1 51895U 22022AV  22194.91667824  .00033416  00000-0  21096-2 0  9994,2 51895  53.2163 231.1323 0001851  47.5982 243.4442 15.08807798  1305,6917.979,95.44,541.124,538.563,0.0
51895.0,STARLINK-3594,PAYLOAD,2022-07-14 14:00:01,15.08817951,0.0002026,53.2157,228.1413,43.4958,270.7031,0.0018554,0.00029347,0.0,0 STARLINK-3594,1 51895U 22022AV  22195.58334491  .00029347  00000-0  18554-2 0  9992,2 51895  53.2157 228.1413 0002026  43.4958 270.7031 15.08817951 21836,6917.948,95.439,541.214,538.411,0.0
51895.0,STARLINK-3594,PAYLOAD,2022-07-14 22:00:00,15.08812013,0.0001846,53.2157,226.6432,49.4456,276.344,0.0024446,0.00038803,0.0,0 STARLINK-3594,1 51895U 22022AV  22195.91667824  .00038803  00000-0  24446-2 0  9992,2 51895  53.2157 226.6432 0001846  49.4456 276.3440 15.08812013  1308,6917.965999999999,95.439,541.1080000000002,538.554,0.0
51895.0,STARLINK-3594,PAYLOAD,2022-07-15 06:00:00,15.08852046,0.0001935,53.2157,225.1477,48.9113,288.453,-0.001836,-0.00029399,0.0,0 STARLINK-3594,1 51895U 22022AV  22196.25001157 -.00029399  00000-0 -18360-2 0  9991,2 51895  53.2157 225.1477 0001935  48.9113 288.4530 15.08852046 21939,6917.844,95.437,541.047,538.37,0.0
51895.0,STARLINK-3594,PAYLOAD,2022-07-15 14:00:01,15.08829276,0.0002034,53.2152,223.652,44.6768,304.2849,0.0013288,0.00020917,0.0,0 STARLINK-3594,1 51895U 22022AV  22196.58334491  .00020917  00000-0  13288-2 0  9996,2 51895  53.2152 223.6520 0002034  44.6768 304.2849 15.08829276  1304,6917.913000000001,95.438,541.185,538.371,0.0
51895.0,STARLINK-3594,PAYLOAD,2022-07-15 22:00:00,15.08817775,0.0001872,53.2152,222.1539,50.922,309.6423,0.002757,0.00043836,0.0,0 STARLINK-3594,1 51895U 22022AV  22196.91667824  .00043836  00000-0  27570-2 0  9996,2 51895  53.2152 222.1539 0001872  50.9220 309.6423 15.08817775 22042,6917.948,95.439,541.1080000000002,538.518,0.0
51895.0,STARLINK-3594,PAYLOAD,2022-07-16 14:00:01,15.08840879,0.0002082,53.2151,219.1626,45.5088,338.2433,0.00092902,0.00014529,0.0,0 STARLINK-3594,1 51895U 22022AV  22197.58334491  .00014529  00000-0  92902-3 0  9990,2 51895  53.2151 219.1626 0002082  45.5088 338.2433 15.08840879 22141,6917.878000000002,95.437,541.183,538.302,0.0
51895.0,STARLINK-3594,PAYLOAD,2022-07-16 22:00:00,15.08830818,0.0001904,53.2152,217.6644,50.9028,344.4625,0.0021,0.00033284,0.0,0 STARLINK-3594,1 51895U 22022AV  22197.91667824  .00033284  00000-0  21000-2 0  9995,2 51895  53.2152 217.6644 0001904  50.9028 344.4625 15.08830818  1300,6917.908,95.438,541.091,538.456,0.0
51895.0,STARLINK-3594,PAYLOAD,2022-07-17 14:00:01,15.08827608,0.0002075,53.2154,214.6732,43.7483,14.8057,0.00063371,9.808e-05,0.0,0 STARLINK-3594,1 51895U 22022AV  22198.58334491  .00009808  00000-0  63371-3 0  9993,2 51895  53.2154 214.6732 0002075  43.7483  14.8057 15.08827608 22293,6917.918000000002,95.438,541.219,538.3480000000002,0.0
51895.0,STARLINK-3594,PAYLOAD,2022-07-17 22:00:00,15.08806644,0.0001931,53.2157,213.175,49.5042,20.6366,0.0028327,0.00045042,0.0,0 STARLINK-3594,1 51895U 22022AV  22198.91667824  .00045042  00000-0  28327-2 0  9990,2 51895  53.2157 213.1750 0001931  49.5042  20.6366 15.08806644  1309,6917.982,95.44,541.183,538.511,0.0
51895.0,STARLINK-3594,PAYLOAD,2022-07-18 14:00:01,15.0883751,0.0002182,53.216,210.1838,44.7011,48.6009,0.00010995,1.462e-05,0.0,0 STARLINK-3594,1 51895U 22022AV  22199.58334491  .00001462  00000-0  10995-3 0  9996,2 51895  53.2160 210.1838 0002182  44.7011  48.6009 15.08837510 22447,6917.888000000001,95.438,541.262,538.244,0.0
51895.0,STARLINK-3594,PAYLOAD,2022-07-18 22:00:00,15.08817336,0.0002035,53.2163,208.6858,50.2554,54.6463,0.0026598,0.00042271,0.0,0 STARLINK-3594,1 51895U 22022AV  22199.91667824  .00042271  00000-0  26598-2 0  9990,2 51895  53.2163 208.6858 0002035  50.2554  54.6463 15.08817336  1302,6917.95,95.439,541.222,538.4069999999998,0.0
51895.0,STARLINK-3594,PAYLOAD,2022-07-19 14:00:01,15.08851866,0.0002262,53.2165,205.6946,46.1454,81.9414,-0.00033282,-5.583e-05,0.0,0 STARLINK-3594,1 51895U 22022AV  22200.58334491 -.00005583  00000-0 -33282-3 0  9993,2 51895  53.2165 205.6946 0002262  46.1454  81.9414 15.08851866  1309,6917.844,95.437,541.274,538.144,0.0
51895.0,STARLINK-3594,PAYLOAD,2022-07-19 22:00:00,15.08878838,0.000208,53.2172,204.2008,50.2529,89.4305,-0.0066841,-0.00105231,0.0,0 STARLINK-3594,1 51895U 22022AV  22200.91667824 -.00105231  00000-0 -66841-2 0  9996,2 51895  53.2172 204.2008 0002080  50.2529  89.4305 15.08878838  1308,6917.762,95.435,541.066,538.188,0.0
51895.0,STARLINK-3594,PAYLOAD,2022-07-20 06:00:00,15.08844262,0.0002193,53.2169,202.7018,47.773,103.5337,-0.0017046,-0.00027319,0.0,0 STARLINK-3594,1 51895U 22022AV  22201.25001157 -.00027319  00000-0 -17046-2 0  9998,2 51895  53.2169 202.7018 0002193  47.7730 103.5337 15.08844262 22690,6917.8669999999975,95.437,541.249,538.215,0.0
51895.0,STARLINK-3594,PAYLOAD,2022-07-20 14:00:01,15.08843147,0.0002215999999999,53.2168,201.2054,46.2224,116.6673,-0.0008257999999999,-0.00013408,0.0,0 STARLINK-3594,1 51895U 22022AV  22201.58334491 -.00013408  00000-0 -82580-3 0  9994,2 51895  53.2168 201.2054 0002216  46.2224 116.6673 15.08843147  1305,6917.871,95.437,541.269,538.203,0.0
51895.0,STARLINK-3594,PAYLOAD,2022-07-20 22:00:01,15.08819713,0.0002056999999999,53.217,199.7077,51.7585,122.7895,0.002293,0.00036374,0.0,0 STARLINK-3594,1 51895U 22022AV  22201.91668981  .00036374  00000-0  22930-2 0  9992,2 51895  53.2170 199.7077 0002057  51.7585 122.7895 15.08819713 22790,6917.941999999999,95.439,541.23,538.384,0.0
51895.0,STARLINK-3594,PAYLOAD,2022-07-21 14:00:01,15.0885511,0.0002218,53.2166,196.7163,48.0258,149.7007,-0.001426,-0.00022922,0.0,0 STARLINK-3594,1 51895U 22022AV  22202.58335648 -.00022922  00000-0 -14260-2 0  9990,2 51895  53.2166 196.7163 0002218  48.0258 149.7007 15.08855110  1302,6917.834,95.437,541.234,538.165,0.0
51895.0,STARLINK-3594,PAYLOAD,2022-07-21 22:00:00,15.08824746,0.0001588999999999,53.2167,195.2186,46.312,163.0354,0.00061957,9.582e-05,0.0,0 STARLINK-3594,1 51895U 22022AV  22202.91667824  .00009582  00000-0  61957-3 0  9992,2 51895  53.2167 195.2186 0001589  46.3120 163.0354 15.08824746 22949,6917.927,95.439,540.891,538.693,0.0
